[{"OBJECT_NAME":"CHUANGXIN 1-03 (CX-1-03)","OBJECT_ID":"2011-068A","EPOCH":"2026-03-09T23:48:05.343264","MEAN_MOTION":14.30514213,"ECCENTRICITY":0.00158467,"INCLINATION":98.7066,"RA_OF_ASC_NODE":86.521,"ARG_OF_PERICENTER":50.1728,"MEAN_ANOMALY":9.9604,"EPHEMERIS_TYPE":0,"CLASSIFICATION_TYPE":"U","NORAD_CAT_ID":37930,"ELEMENT_SET_NO":999,"REV_AT_EPOCH":74647,"BSTAR":-1.9220958e-5,"MEAN_MOTION_DOT":-9.5e-7,"MEAN_MOTION_DDOT":0},{"OBJECT_NAME":"FENGYUN 1C DEB","OBJECT_ID":"1999-025HS","EPOCH":"2026-03-09T13:38:44.877408","MEAN_MOTION":14.03966993,"ECCENTRICITY":0.0126139,"INCLINATION":98.3906,"RA_OF_ASC_NODE":281.4638,"ARG_OF_PERICENTER":34.6735,"MEAN_ANOMALY":326.2576,"EPHEMERIS_TYPE":0,"CLASSIFICATION_TYPE":"U","NORAD_CAT_ID":29920,"ELEMENT_SET_NO":999,"REV_AT_EPOCH":97506,"BSTAR":0.00086343,"MEAN_MOTION_DOT":1.425e-5,"MEAN_MOTION_DDOT":0}]
